{"type": "FeatureCollection", "features": [ {"type": "Feature", "properties": {"norad_id": 30266, "name": "FENGYUN 1C DEB", "group": "fengyun-1c-debris", "lat": 8.399395970644575, "lon": 37.874887110040426, "alt_km": 843.7094990769983, "timestamp": "2025-12-01T03:58:50.089247+00:00", "meta": {"OBJECT_NAME": "FENGYUN 1C DEB", "OBJECT_ID": "1999-025YB", "EPOCH": "2025-11-30T18:19:30.116928", "MEAN_MOTION": 14.14989576, "ECCENTRICITY": 0.0083739, "INCLINATION": 99.0438, "RA_OF_ASC_NODE": 38.8148, "ARG_OF_PERICENTER": 99.8865, "MEAN_ANOMALY": 21.4549, "EPHEMERIS_TYPE": 0, "CLASSIFICATION_TYPE": "U", "NORAD_CAT_ID": 30266, "ELEMENT_SET_NO": 999, "REV_AT_EPOCH": 96620, "BSTAR": 0.0012703, "MEAN_MOTION_DOT": 2.498e-05, "MEAN_MOTION_DDOT": 0, "GROUP": "fengyun-1c-debris"}, "tle": {"line1": "1 30266U 99025YB  25334.76354302  .00002498  00000+0  12703-2 0  9996", "line2": "2 30266  99.0438  38.8148 0083739  99.8865  21.4549 14.14989576966201"}}, "geometry": {"type": "Point", "coordinates": [37.874887110040426, 8.399395970644575]}}, {"type": "Feature", "properties": {"norad_id": 30267, "name": "FENGYUN 1C DEB", "group": "fengyun-1c-debris", "lat": -68.11573995901026, "lon": 69.08629014498659, "alt_km": 780.2068904889502, "timestamp": "2025-12-01T03:58:50.089257+00:00", "meta": {"OBJECT_NAME": "FENGYUN 1C DEB", "OBJECT_ID": "1999-025YC", "EPOCH": "2025-11-30T16:29:50.661024", "MEAN_MOTION": 14.23473701, "ECCENTRICITY": 0.0058128, "INCLINATION": 98.8513, "RA_OF_ASC_NODE": 45.7791, "ARG_OF_PERICENTER": 277.8302, "MEAN_ANOMALY": 81.628, "EPHEMERIS_TYPE": 0, "CLASSIFICATION_TYPE": "U", "NORAD_CAT_ID": 30267, "ELEMENT_SET_NO": 999, "REV_AT_EPOCH": 97123, "BSTAR": 0.0015922, "MEAN_MOTION_DOT": 3.638e-05, "MEAN_MOTION_DDOT": 0, "GROUP": "fengyun-1c-debris"}, "tle": {"line1": "1 30267U 99025YC  25334.68739191  .00003638  00000+0  15922-2 0  9994", "line2": "2 30267  98.8513  45.7791 0058128 277.8302  81.6280 14.23473701971239"}}, "geometry": {"type": "Point", "coordinates": [69.08629014498659, -68.11573995901026]}}, {"type": "Feature", "properties": {"norad_id": 30270, "name": "FENGYUN 1C DEB", "group": "fengyun-1c-debris", "lat": 68.18901622397904, "lon": -33.259399772862906, "alt_km": 850.9784460963328, "timestamp": "2025-12-01T03:58:50.089268+00:00", "meta": {"OBJECT_NAME": "FENGYUN 1C DEB", "OBJECT_ID": "1999-025YF", "EPOCH": "2025-11-30T19:57:47.133792", "MEAN_MOTION": 14.11262336, "ECCENTRICITY": 0.0006837, "INCLINATION": 98.7029, "RA_OF_ASC_NODE": 348.9203, "ARG_OF_PERICENTER": 192.4726, "MEAN_ANOMALY": 341.2871, "EPHEMERIS_TYPE": 0, "CLASSIFICATION_TYPE": "U", "NORAD_CAT_ID": 30270, "ELEMENT_SET_NO": 999, "REV_AT_EPOCH": 97193, "BSTAR": 0.00010493, "MEAN_MOTION_DOT": 1.47e-06, "MEAN_MOTION_DDOT": 0, "GROUP": "fengyun-1c-debris"}, "tle": {"line1": "1 30270U 99025YF  25334.83179553  .00000147  00000+0  10493-3 0  9996", "line2": "2 30270  98.7029 348.9203 0006837 192.4726 341.2871 14.11262336971937"}}, "geometry": {"type": "Point", "coordinates": [-33.259399772862906, 68.18901622397904]}}, {"type": "Feature", "properties": {"norad_id": 30272, "name": "FENGYUN 1C DEB", "group": "fengyun-1c-debris", "lat": 19.50353090497526, "lon": -133.92199290130338, "alt_km": 809.6913842626254, "timestamp": "2025-12-01T03:58:50.089278+00:00", "meta": {"OBJECT_NAME": "FENGYUN 1C DEB", "OBJECT_ID": "1999-025YH", "EPOCH": "2025-11-30T15:20:47.252256", "MEAN_MOTION": 14.14621927, "ECCENTRICITY": 0.0051472, "INCLINATION": 98.9023, "RA_OF_ASC_NODE": 42.3709, "ARG_OF_PERICENTER": 137.5076, "MEAN_ANOMALY": 223.0099, "EPHEMERIS_TYPE": 0, "CLASSIFICATION_TYPE": "U", "NORAD_CAT_ID": 30272, "ELEMENT_SET_NO": 999, "REV_AT_EPOCH": 96685, "BSTAR": 0.0013083, "MEAN_MOTION_DOT": 2.503e-05, "MEAN_MOTION_DDOT": 0, "GROUP": "fengyun-1c-debris"}, "tle": {"line1": "1 30272U 99025YH  25334.63943579  .00002503  00000+0  13083-2 0  9998", "line2": "2 30272  98.9023  42.3709 0051472 137.5076 223.0099 14.14621927966856"}}, "geometry": {"type": "Point", "coordinates": [-133.92199290130338, 19.50353090497526]}}, {"type": "Feature", "properties": {"norad_id": 30273, "name": "FENGYUN 1C DEB", "group": "fengyun-1c-debris", "lat": -78.45168639932442, "lon": 39.685300553869816, "alt_km": 848.1077756036866, "timestamp": "2025-12-01T03:58:50.089289+00:00", "meta": {"OBJECT_NAME": "FENGYUN 1C DEB", "OBJECT_ID": "1999-025YJ", "EPOCH": "2025-11-30T18:56:55.785120", "MEAN_MOTION": 14.02628161, "ECCENTRICITY": 0.006064, "INCLINATION": 98.8414, "RA_OF_ASC_NODE": 349.7027, "ARG_OF_PERICENTER": 283.0877, "MEAN_ANOMALY": 255.257, "EPHEMERIS_TYPE": 0, "CLASSIFICATION_TYPE": "U", "NORAD_CAT_ID": 30273, "ELEMENT_SET_NO": 999, "REV_AT_EPOCH": 96361, "BSTAR": 0.00071434, "MEAN_MOTION_DOT": 1.076e-05, "MEAN_MOTION_DDOT": 0, "GROUP": "fengyun-1c-debris"}, "tle": {"line1": "1 30273U 99025YJ  25334.78953455  .00001076  00000+0  71434-3 0  9998", "line2": "2 30273  98.8414 349.7027 0060640 283.0877 255.2570 14.02628161963616"}}, "geometry": {"type": "Point", "coordinates": [39.685300553869816, -78.45168639932442]}}, {"type": "Feature", "properties": {"norad_id": 30274, "name": "FENGYUN 1C DEB", "group": "fengyun-1c-debris", "lat": -49.69774253738173, "lon": -88.52773658419719, "alt_km": 725.0824009443659, "timestamp": "2025-12-01T03:58:50.089299+00:00", "meta": {"OBJECT_NAME": "FENGYUN 1C DEB", "OBJECT_ID": "1999-025YK", "EPOCH": "2025-11-30T07:12:02.225664", "MEAN_MOTION": 14.51217461, "ECCENTRICITY": 0.00047424, "INCLINATION": 99.3013, "RA_OF_ASC_NODE": 101.6571, "ARG_OF_PERICENTER": 232.7346, "MEAN_ANOMALY": 156.8986, "EPHEMERIS_TYPE": 0, "CLASSIFICATION_TYPE": "U", "NORAD_CAT_ID": 30274, "ELEMENT_SET_NO": 999, "REV_AT_EPOCH": 98030, "BSTAR": 0.0030190275, "MEAN_MOTION_DOT": 0.00011965, "MEAN_MOTION_DDOT": 0, "GROUP": "fengyun-1c-debris"}, "tle": {"line1": "1 30274U 99025YK  25334.30002576  .00011965  00000+0  30190-2 0  9997", "line2": "2 30274  99.3013 101.6571 0004742 232.7346 156.8986 14.51217461980303"}}, "geometry": {"type": "Point", "coordinates": [-88.52773658419719, -49.69774253738173]}}, {"type": "Feature", "properties": {"norad_id": 30275, "name": "FENGYUN 1C DEB", "group": "fengyun-1c-debris", "lat": 79.68008181823426, "lon": 2.7393639771664846, "alt_km": 754.8358210568213, "timestamp": "2025-12-01T03:58:50.089310+00:00", "meta": {"OBJECT_NAME": "FENGYUN 1C DEB", "OBJECT_ID": "1999-025YL", "EPOCH": "2025-11-30T04:27:43.515648", "MEAN_MOTION": 14.44970628, "ECCENTRICITY": 0.00397141, "INCLINATION": 98.6286, "RA_OF_ASC_NODE": 58.2461, "ARG_OF_PERICENTER": 222.9399, "MEAN_ANOMALY": 167.1003, "EPHEMERIS_TYPE": 0, "CLASSIFICATION_TYPE": "U", "NORAD_CAT_ID": 30275, "ELEMENT_SET_NO": 999, "REV_AT_EPOCH": 97903, "BSTAR": 0.0026342477, "MEAN_MOTION_DOT": 9.24e-05, "MEAN_MOTION_DDOT": 0, "GROUP": "fengyun-1c-debris"}, "tle": {"line1": "1 30275U 99025YL  25334.18592032  .00009240  00000+0  26342-2 0  9992", "line2": "2 30275  98.6286  58.2461 0039714 222.9399 167.1003 14.44970628979035"}}, "geometry": {"type": "Point", "coordinates": [2.7393639771664846, 79.68008181823426]}}, {"type": "Feature", "properties": {"norad_id": 30276, "name": "FENGYUN 1C DEB", "group": "fengyun-1c-debris", "lat": 61.02460289478295, "lon": 30.229247538128494, "alt_km": 787.30163886014, "timestamp": "2025-12-01T03:58:50.089320+00:00", "meta": {"OBJECT_NAME": "FENGYUN 1C DEB", "OBJECT_ID": "1999-025YM", "EPOCH": "2025-11-30T17:35:31.623360", "MEAN_MOTION": 14.26907094, "ECCENTRICITY": 0.0025824, "INCLINATION": 98.8606, "RA_OF_ASC_NODE": 46.1528, "ARG_OF_PERICENTER": 125.3803, "MEAN_ANOMALY": 234.9794, "EPHEMERIS_TYPE": 0, "CLASSIFICATION_TYPE": "U", "NORAD_CAT_ID": 30276, "ELEMENT_SET_NO": 999, "REV_AT_EPOCH": 97359, "BSTAR": 0.0012833, "MEAN_MOTION_DOT": 3.083e-05, "MEAN_MOTION_DDOT": 0, "GROUP": "fengyun-1c-debris"}, "tle": {"line1": "1 30276U 99025YM  25334.73300490  .00003083  00000+0  12833-2 0  9998", "line2": "2 30276  98.8606  46.1528 0025824 125.3803 234.9794 14.26907094973599"}}, "geometry": {"type": "Point", "coordinates": [30.229247538128494, 61.02460289478295]}}, {"type": "Feature", "properties": {"norad_id": 30277, "name": "FENGYUN 1C DEB", "group": "fengyun-1c-debris", "lat": -27.363445900639604, "lon": 50.48614055208176, "alt_km": 899.9557947410422, "timestamp": "2025-12-01T03:58:50.089330+00:00", "meta": {"OBJECT_NAME": "FENGYUN 1C DEB", "OBJECT_ID": "1999-025YN", "EPOCH": "2025-11-30T04:36:13.946112", "MEAN_MOTION": 14.13466062, "ECCENTRICITY": 0.01237644, "INCLINATION": 98.9746, "RA_OF_ASC_NODE": 44.8177, "ARG_OF_PERICENTER": 213.0156, "MEAN_ANOMALY": 204.5705, "EPHEMERIS_TYPE": 0, "CLASSIFICATION_TYPE": "U", "NORAD_CAT_ID": 30277, "ELEMENT_SET_NO": 999, "REV_AT_EPOCH": 96612, "BSTAR": 0.0014871051, "MEAN_MOTION_DOT": 2.965e-05, "MEAN_MOTION_DDOT": 0, "GROUP": "fengyun-1c-debris"}, "tle": {"line1": "1 30277U 99025YN  25334.19182808  .00002965  00000+0  14871-2 0  9992", "line2": "2 30277  98.9746  44.8177 0123764 213.0156 204.5705 14.13466062966126"}}, "geometry": {"type": "Point", "coordinates": [50.48614055208176, -27.363445900639604]}}]}